HAWK-7B                 
1 56193U 23054R   26193.26583307  .00003010  00000+0  11420-3 0  9997
2 56193  97.2699  78.2387 0001644  22.7496 337.3816 15.27610487180852
HAWK-7C                 
1 56200U 23054Y   26193.06920338  .00003368  00000+0  12745-3 0  9990
2 56200  97.2676  78.8079 0001217   6.7020 353.4236 15.27613708180822
HAWK-8A                 
1 59443U 24066B   26193.23308169  .00000631  00000+0  69591-4 0  9999
2 59443  45.5951 147.1342 0002796 207.8181 152.2550 14.99281267123598
HAWK-8B                 
1 59445U 24066D   26193.36681367  .00000062  00000+0  23648-4 0  9990
2 59445  45.6158 148.4163 0002973 211.8882 148.1820 14.99277515123602
HAWK-9A                 
1 59446U 24066E   26193.25623722  .00000736  00000+0  78212-4 0  9995
2 59446  45.6091 147.6531 0002521 193.0030 167.0787 14.99210058123593
HAWK-9C                 
1 59448U 24066G   26193.25650119  .00000821  00000+0  85077-4 0  9999
2 59448  45.6055 146.7514 0002315 175.7965 184.2936 14.99213963123596
HAWK-8C                 
1 59449U 24066H   26193.23302122  .00000643  00000+0  70532-4 0  9998
2 59449  45.6070 148.1293 0002588 218.4798 141.5899 14.99284869123581
HAWK-9B                 
1 59450U 24066J   26193.25652694  .00000923  00000+0  93308-4 0  9991
2 59450  45.6131 148.5879 0002519 169.9156 190.1777 14.99212840123593
HAWK-10A                
1 60540U 24149CA  26193.44337898  .00000587  00000+0  56601-4 0  9993
2 60540  97.6893 268.9211 0003405  15.4839 344.6486 14.96589580103767
HAWK-10B                
1 60545U 24149CF  26192.77463925  .00000618  00000+0  59344-4 0  9996
2 60545  97.6812 267.5940 0005811  27.0134 333.1389 14.96587830103667
HAWK-10C                
1 60575U 24149DM  26192.77497084  .00000494  00000+0  48415-4 0  9991
2 60575  97.6731 266.9081 0002976   5.8193 354.3063 14.96586892103668
HAWK-11B                
1 62379U 24247C   26193.29882640  .00004329  00000+0  15345-3 0  9994
2 62379  45.0137 152.0611 0003413   4.5068 355.5847 15.30640892 86851
HAWK-11C                
1 62381U 24247E   26192.90678711  .00004369  00000+0  15480-3 0  9990
2 62381  45.0017 153.5448 0004418 351.8498   8.2314 15.30634627 86799
HAWK-11A                
1 62382U 24247F   26191.92791228  .00003319  00000+0  12011-3 0  9992
2 62382  44.9912 158.2462 0004065 346.2323  13.8450 15.30622161 86640
HAWK-12C                
1 64621U 25138A   26193.48180297  .00002548  00000+0  12689-3 0  9995
2 64621  97.4348 195.4988 0015497  59.6640 300.6124 15.18392900 57709
HAWK-12B                
1 64622U 25138B   26193.48197632  .00002547  00000+0  12690-3 0  9998
2 64622  97.4472 196.1881 0014377  55.8693 304.3902 15.18392421 57703
